LocationID,Name,Address,Longitude,Latitude
1,Krajcik Group,5 Waubesa Avenue,-77.8138553,2.579401
2,Stoltenberg-Wilkinson,660 Farragut Center,108.952224,19.328109
3,Becker-Monahan,9741 Upham Crossing,16.7007399,52.28375
4,"Ullrich, Ziemann and Emmerich",68758 Melvin Street,111.6556388,-7.5450262
5,Blanda LLC,17279 Clarendon Way,121.0194,-8.8231
6,Reichert and Sons,96747 Sutteridge Court,19.7710732,41.5094765
7,"Rosenbaum, Tillman and Gulgowski",6 2nd Drive,-65.3379779,-26.924287
8,"Morissette, Bashirian and Stroman",4 Morrow Hill,3.8626074,43.6121586
9,Hudson LLC,74409 Merchant Park,34.2743587,26.106815
10,Boehm-Hermiston,11 Gulseth Center,-15.9053689,14.8038531
11,Reynolds-Gleichner,9141 Melody Parkway,-8.5363982,7.5790498
12,Balistreri-Yost,53 Pierstorff Terrace,104.066801,30.572815
13,Mann-Price,70 Ohio Park,127.3695176,0.7710308
14,"Stiedemann, Mills and Kunde",0171 Village Alley,22.2519345,51.6325636
15,Hauck LLC,5 Northwestern Crossing,-6.4496384,53.3582341
16,Kshlerin Group,8165 Alpine Junction,106.8274069,-6.2311496
17,"Dietrich, Beahan and Hackett",59041 Sutherland Crossing,-76.240381,8.788161
18,"Runolfsson, Reichel and Ferry",8577 Comanche Lane,6.5863469,12.5951892
19,Mosciski LLC,91 Susan Pass,-0.662941,45.126841
20,Quigley-Cremin,175 Debra Drive,-0.8453268,47.3752386
21,"Boehm, Marvin and Kessler",7 Vernon Street,122.6579982,11.0126649
22,Boyle LLC,85544 Burning Wood Alley,37.0051383,35.5916647
23,Ernser-Sanford,129 Barby Street,-122.42,37.78
24,Dibbert-Nitzsche,70312 Scoville Street,110.4180162,-6.9736661
25,Boyer Group,61 Gerald Plaza,-51.0678473,0.0208039
26,"Rogahn, Russel and Cormier",11933 Aberg Road,102.2290442,12.4537943
27,"Gerlach, Kassulke and Schmeler",415 Buena Vista Crossing,51.0782323,56.2208485
28,Von-Rempel,0 Pepper Wood Road,120.2326771,32.240853
29,Von Group,7 Corben Hill,-45.928795,-22.250939
30,Kohler-Rutherford,5835 Lerdahl Place,124.21591,47.55728
31,Koelpin LLC,7 Dottie Parkway,-42.4724578,-4.6722064
32,"Boehm, Schumm and Larkin",24 Thierer Circle,120.617471,24.1838881
33,Crona-Koss,20 Calypso Street,-41.4812771,-16.3081637
34,Windler-Torphy,801 Lukken Drive,128.1530099,-3.7331933
35,"Conn, Dietrich and Muller",475 Roth Plaza,94.661966,40.142128
36,Corkery Inc,905 Bartillon Street,31.5370003,-0.7069135
37,Medhurst LLC,5 Golden Leaf Street,16.8423093,45.8987972
38,Funk Inc,80 Evergreen Junction,20.9619096,51.3854243
39,"Stark, Feil and Goldner",0 Grayhawk Hill,46.3748931,40.9392676
40,White-Torp,6595 Judy Avenue,60.4890295,56.7980147
41,"Wiegand, Terry and Bernier",725 Kedzie Terrace,121.674572,-0.5223759
42,"Cummerata, O'Keefe and Howe",2 Buena Vista Trail,-79.3535714,-3.9879753
43,"Smitham, Stroman and Kling",26767 Weeping Birch Place,113.591349,23.544678
44,"Bernier, Satterfield and Predovic",867 Havey Pass,19.1990312,47.4485483
45,Abernathy Inc,2849 Cardinal Street,-41.889042,-22.7563906
46,Hahn-Rolfson,097 Pierstorff Alley,81.1085744,28.5099229
47,Grimes and Sons,51 Jay Park,22.1857013,40.561598
48,"Emard, Bartell and Hettinger",07702 North Plaza,-40.2271243,-12.8454679
49,Connelly Group,751 Nobel Point,105.6419561,31.9799036
50,Maggio-Harber,5 Onsgard Avenue,84.312982,49.8127669
51,Labadie Inc,264 Kings Lane,119.310773,30.97213
52,Ruecker-Schmeler,260 Eagle Crest Lane,36.1135722,52.2248754
53,Jerde and Sons,94 Sutherland Junction,-70.2462741,-18.0065679
54,Kuvalis-Morar,3259 Blue Bill Park Pass,121.0075554,14.5508865
55,"Lebsack, Carroll and Gorczany",2 Comanche Pass,108.960747,34.26645
56,Howe-Haag,30 Kennedy Pass,118.511235,28.901462
57,Konopelski LLC,6529 Texas Point,32.1611288,-3.6528013
58,Bogan-Kohler,82448 Mallory Terrace,105.0177539,-5.0768453
59,Huels-Feil,518 Declaration Lane,70.4574593,54.9066121
60,Adams-Conn,56 Sommers Place,16.8722323,49.8825995
61,Strosin LLC,78 Pennsylvania Hill,49.98361,40.42639
62,McClure LLC,180 Dawn Pass,120.521698,-2.615848
63,"Ruecker, Jakubowski and Stark",6802 Veith Pass,103.3380637,25.2743983
64,Conroy Group,86 Corscot Park,62.8617596,39.4286365
65,Ruecker LLC,50471 Bowman Avenue,111.6899,-6.8933
66,"Quigley, Goyette and Bogan",6 Johnson Center,88.9497046,24.805208
67,Murphy-Terry,440 Fuller Junction,19.3208433,44.6111646
68,Kassulke-Terry,47158 Summit Trail,118.109506,24.5306908
69,Considine-Hermiston,00 Fulton Way,-48.6891129,-21.7414439
70,"Gutkowski, Mueller and Feeney",3789 4th Terrace,15.7384571,50.9575733
71,"Hickle, Witting and Kerluke",234 Farwell Hill,17.0568962,12.3783745
72,Lubowitz-Kris,3 Oak Valley Lane,105.939567,-6.194154
73,"Luettgen, Wolff and Wisoky",3274 Gale Plaza,23.0202458,53.0249087
74,Rau Group,24 Southridge Pass,126.8080369,42.383271
75,Bergstrom and Sons,0640 Hollow Ridge Pass,-85.6698146,12.3772165
76,Mueller Inc,9382 Everett Plaza,-62.617788,17.1744437
77,Boyer Inc,65 Harbort Parkway,106.3905338,10.9070312
78,Beer-Kunde,85924 Del Mar Hill,34.3097519,63.7388395
79,Tillman-Schumm,1 Bultman Center,5.1841395,52.0296117
80,"Torp, Ebert and Reynolds",3776 Leroy Terrace,122.616,10.7497
81,"Kohler, Kilback and Kuhic",0946 Carberry Crossing,24.9388982,63.6045211
82,Jast-Beier,357 Mallory Plaza,-75.819361,5.596767
83,Bins LLC,0 Mifflin Drive,116.83333,48.66667
84,"Hermiston, Lebsack and Dickinson",65 Green Ridge Road,120.8017163,15.9052069
85,"Larkin, Greenholt and Gleason",43 Tennyson Place,-72.121559,-14.34823
86,Schaefer-Lehner,18 Kenwood Point,49.0652963,-18.8200534
87,"Hammes, Kulas and Schumm",832 Dovetail Junction,120.5989577,18.1965639
88,Leannon-Wolf,66472 Scofield Trail,17.3898527,48.9855573
89,Simonis-Hickle,04 Paget Park,107.7073688,-6.6958883
90,Emmerich LLC,5 Mesta Avenue,36.5662858,32.7128968
91,"Hauck, Schoen and Medhurst",51531 Messerschmidt Way,28.2468148,-28.7653754
92,"Brown, Jones and Hettinger",326 Northview Parkway,94.03543,31.19793
93,"Howell, Wuckert and Jones",7 Division Street,-57.5554058,-38.0752295
94,"Dare, Hilpert and Fadel",9 Oak Valley Point,100.3273368,-0.6850063
95,Schaefer-Bergstrom,97870 Crowley Crossing,-49.26952,-26.8251371
96,Wolf-Gottlieb,8923 Messerschmidt Terrace,-45.3664809,-23.8158392
97,"Reichert, Turcotte and Orn",168 Mcbride Court,5.5053129,13.1225519
98,Cummerata-O'Hara,82689 Crowley Lane,114.1829,-7.7516
99,Veum-Borer,6938 Doe Crossing Street,101.2804075,6.5411018
100,Blick-Gottlieb,5 Express Hill,114.598171,-3.32192
